CCSDS_OMM_VERS = 2.0
CREATION_DATE  = 
ORIGINATOR     = 

OBJECT_NAME    = STARLINK-36527
OBJECT_ID      = 2026-020Q
CENTER_NAME    = EARTH
REF_FRAME      = TEME
TIME_SYSTEM    = UTC
MEAN_ELEMENT_THEORY = SGP/SGP4

EPOCH          = 2026-02-20T21:45:45.637344
MEAN_MOTION    = 15.82167938
ECCENTRICITY   = .0001862
INCLINATION    = 42.9983
RA_OF_ASC_NODE = 243.6012
ARG_OF_PERICENTER = 294.0890
MEAN_ANOMALY   = 65.9787

EPHEMERIS_TYPE = 0
CLASSIFICATION_TYPE = U
NORAD_CAT_ID   = 67631
ELEMENT_SET_NO = 999
REV_AT_EPOCH   = 344
BSTAR          = .2205E-2
MEAN_MOTION_DOT = .49479E-2
MEAN_MOTION_DDOT = 0

CCSDS_OMM_VERS = 2.0
CREATION_DATE  = 
ORIGINATOR     = 

OBJECT_NAME    = STARLINK-36633
OBJECT_ID      = 2026-020R
CENTER_NAME    = EARTH
REF_FRAME      = TEME
TIME_SYSTEM    = UTC
MEAN_ELEMENT_THEORY = SGP/SGP4

EPOCH          = 2026-02-21T04:00:01.999584
MEAN_MOTION    = 15.76383413
ECCENTRICITY   = .0002109
INCLINATION    = 42.9996
RA_OF_ASC_NODE = 242.1119
ARG_OF_PERICENTER = 264.0473
MEAN_ANOMALY   = 97.1328

EPHEMERIS_TYPE = 0
CLASSIFICATION_TYPE = U
NORAD_CAT_ID   = 67632
ELEMENT_SET_NO = 999
REV_AT_EPOCH   = 473
BSTAR          = -.16586E-3
MEAN_MOTION_DOT = -.27432E-3
MEAN_MOTION_DDOT = 0

CCSDS_OMM_VERS = 2.0
CREATION_DATE  = 
ORIGINATOR     = 

OBJECT_NAME    = STARLINK-36637
OBJECT_ID      = 2026-020S
CENTER_NAME    = EARTH
REF_FRAME      = TEME
TIME_SYSTEM    = UTC
MEAN_ELEMENT_THEORY = SGP/SGP4

EPOCH          = 2026-02-20T22:35:47.398848
MEAN_MOTION    = 15.76693209
ECCENTRICITY   = .0003351
INCLINATION    = 42.9978
RA_OF_ASC_NODE = 243.8852
ARG_OF_PERICENTER = 272.7689
MEAN_ANOMALY   = 87.2797

EPHEMERIS_TYPE = 0
CLASSIFICATION_TYPE = U
NORAD_CAT_ID   = 67633
ELEMENT_SET_NO = 999
REV_AT_EPOCH   = 344
BSTAR          = .22366E-2
MEAN_MOTION_DOT = .386382E-2
MEAN_MOTION_DDOT = 0

CCSDS_OMM_VERS = 2.0
CREATION_DATE  = 
ORIGINATOR     = 

OBJECT_NAME    = STARLINK-36617
OBJECT_ID      = 2026-020T
CENTER_NAME    = EARTH
REF_FRAME      = TEME
TIME_SYSTEM    = UTC
MEAN_ELEMENT_THEORY = SGP/SGP4

EPOCH          = 2026-02-20T21:42:50.938272
MEAN_MOTION    = 15.82158698
ECCENTRICITY   = .0002439
INCLINATION    = 42.9994
RA_OF_ASC_NODE = 243.5856
ARG_OF_PERICENTER = 287.1807
MEAN_ANOMALY   = 72.8797

EPHEMERIS_TYPE = 0
CLASSIFICATION_TYPE = U
NORAD_CAT_ID   = 67634
ELEMENT_SET_NO = 999
REV_AT_EPOCH   = 344
BSTAR          = .1707E-2
MEAN_MOTION_DOT = .377542E-2
MEAN_MOTION_DDOT = 0

CCSDS_OMM_VERS = 2.0
CREATION_DATE  = 
ORIGINATOR     = 

OBJECT_NAME    = STARLINK-36627
OBJECT_ID      = 2026-020U
CENTER_NAME    = EARTH
REF_FRAME      = TEME
TIME_SYSTEM    = UTC
MEAN_ELEMENT_THEORY = SGP/SGP4

EPOCH          = 2026-02-20T20:55:05.705184
MEAN_MOTION    = 15.76463661
ECCENTRICITY   = .000246
INCLINATION    = 42.9989
RA_OF_ASC_NODE = 244.2160
ARG_OF_PERICENTER = 286.5665
MEAN_ANOMALY   = 73.4934

EPHEMERIS_TYPE = 0
CLASSIFICATION_TYPE = U
NORAD_CAT_ID   = 67635
ELEMENT_SET_NO = 999
REV_AT_EPOCH   = 343
BSTAR          = .2082E-2
MEAN_MOTION_DOT = .354644E-2
MEAN_MOTION_DDOT = 0

CCSDS_OMM_VERS = 2.0
CREATION_DATE  = 
ORIGINATOR     = 

OBJECT_NAME    = STARLINK-36624
OBJECT_ID      = 2026-020V
CENTER_NAME    = EARTH
REF_FRAME      = TEME
TIME_SYSTEM    = UTC
MEAN_ELEMENT_THEORY = SGP/SGP4

EPOCH          = 2026-02-21T04:00:01.999584
MEAN_MOTION    = 15.76383123
ECCENTRICITY   = .0001637
INCLINATION    = 42.9996
RA_OF_ASC_NODE = 242.1432
ARG_OF_PERICENTER = 271.8512
MEAN_ANOMALY   = 76.8929

EPHEMERIS_TYPE = 0
CLASSIFICATION_TYPE = U
NORAD_CAT_ID   = 67636
ELEMENT_SET_NO = 999
REV_AT_EPOCH   = 473
BSTAR          = -.16703E-3
MEAN_MOTION_DOT = -.27619E-3
MEAN_MOTION_DDOT = 0

CCSDS_OMM_VERS = 2.0
CREATION_DATE  = 
ORIGINATOR     = 

OBJECT_NAME    = STARLINK-36610
OBJECT_ID      = 2026-020W
CENTER_NAME    = EARTH
REF_FRAME      = TEME
TIME_SYSTEM    = UTC
MEAN_ELEMENT_THEORY = SGP/SGP4

EPOCH          = 2026-02-20T20:58:15.214944
MEAN_MOTION    = 15.76658063
ECCENTRICITY   = .0002725
INCLINATION    = 42.9972
RA_OF_ASC_NODE = 244.2350
ARG_OF_PERICENTER = 291.0607
MEAN_ANOMALY   = 68.9971

EPHEMERIS_TYPE = 0
CLASSIFICATION_TYPE = U
NORAD_CAT_ID   = 67637
ELEMENT_SET_NO = 999
REV_AT_EPOCH   = 343
BSTAR          = .22664E-2
MEAN_MOTION_DOT = .391138E-2
MEAN_MOTION_DDOT = 0

CCSDS_OMM_VERS = 2.0
CREATION_DATE  = 
ORIGINATOR     = 

OBJECT_NAME    = STARLINK-36599
OBJECT_ID      = 2026-020X
CENTER_NAME    = EARTH
REF_FRAME      = TEME
TIME_SYSTEM    = UTC
MEAN_ELEMENT_THEORY = SGP/SGP4

EPOCH          = 2026-02-19T22:53:10.525920
MEAN_MOTION    = 15.82089196
ECCENTRICITY   = .0002245
INCLINATION    = 42.9966
RA_OF_ASC_NODE = 249.3581
ARG_OF_PERICENTER = 274.4216
MEAN_ANOMALY   = 85.6399

EPHEMERIS_TYPE = 0
CLASSIFICATION_TYPE = U
NORAD_CAT_ID   = 67638
ELEMENT_SET_NO = 999
REV_AT_EPOCH   = 329
BSTAR          = .97699E-3
MEAN_MOTION_DOT = .211006E-2
MEAN_MOTION_DDOT = 0

CCSDS_OMM_VERS = 2.0
CREATION_DATE  = 
ORIGINATOR     = 

OBJECT_NAME    = STARLINK-36595
OBJECT_ID      = 2026-020Y
CENTER_NAME    = EARTH
REF_FRAME      = TEME
TIME_SYSTEM    = UTC
MEAN_ELEMENT_THEORY = SGP/SGP4

EPOCH          = 2026-02-21T04:00:01.999584
MEAN_MOTION    = 15.76397226
ECCENTRICITY   = .0001838
INCLINATION    = 42.9993
RA_OF_ASC_NODE = 242.0491
ARG_OF_PERICENTER = 270.4793
MEAN_ANOMALY   = 115.5896

EPHEMERIS_TYPE = 0
CLASSIFICATION_TYPE = U
NORAD_CAT_ID   = 67639
ELEMENT_SET_NO = 999
REV_AT_EPOCH   = 473
BSTAR          = -.40584E-3
MEAN_MOTION_DOT = -.66153E-3
MEAN_MOTION_DDOT = 0

CCSDS_OMM_VERS = 2.0
CREATION_DATE  = 
ORIGINATOR     = 

OBJECT_NAME    = STARLINK-36570
OBJECT_ID      = 2026-020Z
CENTER_NAME    = EARTH
REF_FRAME      = TEME
TIME_SYSTEM    = UTC
MEAN_ELEMENT_THEORY = SGP/SGP4

EPOCH          = 2026-02-20T13:12:35.948448
MEAN_MOTION    = 15.76505084
ECCENTRICITY   = .00020827
INCLINATION    = 42.9980
RA_OF_ASC_NODE = 246.1048
ARG_OF_PERICENTER = 254.6786
MEAN_ANOMALY   = 105.3853

EPHEMERIS_TYPE = 0
CLASSIFICATION_TYPE = U
NORAD_CAT_ID   = 67640
ELEMENT_SET_NO = 999
REV_AT_EPOCH   = 338
BSTAR          = .16628579E-2
MEAN_MOTION_DOT = .281192E-2
MEAN_MOTION_DDOT = 0

CCSDS_OMM_VERS = 2.0
CREATION_DATE  = 
ORIGINATOR     = 

OBJECT_NAME    = STARLINK-36514
OBJECT_ID      = 2026-020AA
CENTER_NAME    = EARTH
REF_FRAME      = TEME
TIME_SYSTEM    = UTC
MEAN_ELEMENT_THEORY = SGP/SGP4

EPOCH          = 2026-02-20T10:56:03.536736
MEAN_MOTION    = 15.82340467
ECCENTRICITY   = .00049585
INCLINATION    = 42.9979
RA_OF_ASC_NODE = 246.2325
ARG_OF_PERICENTER = 307.5036
MEAN_ANOMALY   = 52.5385

EPHEMERIS_TYPE = 0
CLASSIFICATION_TYPE = U
NORAD_CAT_ID   = 67641
ELEMENT_SET_NO = 999
REV_AT_EPOCH   = 337
BSTAR          = .18484134E-2
MEAN_MOTION_DOT = .414249E-2
MEAN_MOTION_DDOT = 0

CCSDS_OMM_VERS = 2.0
CREATION_DATE  = 
ORIGINATOR     = 

OBJECT_NAME    = STARLINK-36556
OBJECT_ID      = 2026-020AB
CENTER_NAME    = EARTH
REF_FRAME      = TEME
TIME_SYSTEM    = UTC
MEAN_ELEMENT_THEORY = SGP/SGP4

EPOCH          = 2026-02-21T00:00:01.999296
MEAN_MOTION    = 15.76388966
ECCENTRICITY   = .0001946
INCLINATION    = 42.9992
RA_OF_ASC_NODE = 243.2194
ARG_OF_PERICENTER = 260.5355
MEAN_ANOMALY   = 196.2013

EPHEMERIS_TYPE = 0
CLASSIFICATION_TYPE = U
NORAD_CAT_ID   = 67642
ELEMENT_SET_NO = 999
REV_AT_EPOCH   = 470
BSTAR          = .94554E-3
MEAN_MOTION_DOT = .156518E-2
MEAN_MOTION_DDOT = 0

