STARLINK-36527          
1 67631U 26020Q   26051.90677821  .00494790  00000+0  22050-2 0  9990
2 67631  42.9983 243.6012 0001862 294.0890  65.9787 15.82167938  3440
STARLINK-36633          
1 67632U 26020R   26052.16668981 -.00027432  00000+0 -16586-3 0  9992
2 67632  42.9996 242.1119 0002109 264.0473  97.1328 15.76383413  4738
STARLINK-36637          
1 67633U 26020S   26051.94152082  .00386382  00000+0  22366-2 0  9990
2 67633  42.9978 243.8852 0003351 272.7689  87.2797 15.76693209  3440
STARLINK-36617          
1 67634U 26020T   26051.90475623  .00377542  00000+0  17070-2 0  9990
2 67634  42.9994 243.5856 0002439 287.1807  72.8797 15.82158698  3443
STARLINK-36627          
1 67635U 26020U   26051.87159381  .00354644  00000+0  20820-2 0  9992
2 67635  42.9989 244.2160 0002460 286.5665  73.4934 15.76463661  3434
STARLINK-36624          
1 67636U 26020V   26052.16668981 -.00027619  00000+0 -16703-3 0  9994
2 67636  42.9996 242.1432 0001637 271.8512  76.8929 15.76383123  4734
STARLINK-36610          
1 67637U 26020W   26051.87378721  .00391138  00000+0  22664-2 0  9992
2 67637  42.9972 244.2350 0002725 291.0607  68.9971 15.76658063  3432
STARLINK-36599          
1 67638U 26020X   26050.95359405  .00211006  00000+0  97699-3 0  9995
2 67638  42.9966 249.3581 0002245 274.4216  85.6399 15.82089196  3292
STARLINK-36595          
1 67639U 26020Y   26052.16668981 -.00066153  00000+0 -40584-3 0  9997
2 67639  42.9993 242.0491 0001838 270.4793 115.5896 15.76397226  4730
STARLINK-36570          
1 67640U 26020Z   26051.55041607  .00281192  00000+0  16629-2 0  9993
2 67640  42.9980 246.1048 0002082 254.6786 105.3853 15.76505084  3382
STARLINK-36514          
1 67641U 26020AA  26051.45559649  .00414249  00000+0  18484-2 0  9995
2 67641  42.9979 246.2325 0004958 307.5036  52.5385 15.82340467  3371
STARLINK-36556          
1 67642U 26020AB  26052.00002314  .00156518  00000+0  94554-3 0  9995
2 67642  42.9992 243.2194 0001946 260.5355 196.2013 15.76388966  4705
